[
    {
        "OBJECT_NAME": "NAVSTAR 19 (USA 54)",
        "OBJECT_ID": "1990-025A",
        "EPOCH": "2025-11-23T06:33:32.305248",
        "MEAN_MOTION": 1.91038861,
        "ECCENTRICITY": 0.00446272,
        "INCLINATION": 53.5939,
        "RA_OF_ASC_NODE": 253.2151,
        "ARG_OF_PERICENTER": 223.3111,
        "MEAN_ANOMALY": 310.526,
        "EPHEMERIS_TYPE": 0,
        "CLASSIFICATION_TYPE": "U",
        "NORAD_CAT_ID": 20533,
        "ELEMENT_SET_NO": 999,
        "REV_AT_EPOCH": 25108,
        "BSTAR": 0,
        "MEAN_MOTION_DOT": -4e-08,
        "MEAN_MOTION_DDOT": 0
    },
    {
        "OBJECT_NAME": "NAVSTAR 20 (USA 63)",
        "OBJECT_ID": "1990-068A",
        "EPOCH": "2025-11-18T10:45:59.410656",
        "MEAN_MOTION": 1.87186243,
        "ECCENTRICITY": 0.00355171,
        "INCLINATION": 54.7527,
        "RA_OF_ASC_NODE": 81.8866,
        "ARG_OF_PERICENTER": 325.7167,
        "MEAN_ANOMALY": 71.4683,
        "EPHEMERIS_TYPE": 0,
        "CLASSIFICATION_TYPE": "U",
        "NORAD_CAT_ID": 20724,
        "ELEMENT_SET_NO": 999,
        "REV_AT_EPOCH": 24596,
        "BSTAR": 0,
        "MEAN_MOTION_DOT": -4.1e-07,
        "MEAN_MOTION_DDOT": 0
    },
    {
        "OBJECT_NAME": "NAVSTAR 21 (USA 64)",
        "OBJECT_ID": "1990-088A",
        "EPOCH": "2025-11-15T11:56:30.191424",
        "MEAN_MOTION": 1.87752913,
        "ECCENTRICITY": 0.00233507,
        "INCLINATION": 56.389,
        "RA_OF_ASC_NODE": 17.1315,
        "ARG_OF_PERICENTER": 285.6593,
        "MEAN_ANOMALY": 181.5418,
        "EPHEMERIS_TYPE": 0,
        "CLASSIFICATION_TYPE": "U",
        "NORAD_CAT_ID": 20830,
        "ELEMENT_SET_NO": 999,
        "REV_AT_EPOCH": 24879,
        "BSTAR": 0,
        "MEAN_MOTION_DOT": -1.14e-06,
        "MEAN_MOTION_DDOT": 0
    },
    {
        "OBJECT_NAME": "NAVSTAR 22 (USA 66)",
        "OBJECT_ID": "1990-103A",
        "EPOCH": "2025-11-22T10:19:23.063520",
        "MEAN_MOTION": 1.881552,
        "ECCENTRICITY": 0.00210798,
        "INCLINATION": 56.0183,
        "RA_OF_ASC_NODE": 58.7532,
        "ARG_OF_PERICENTER": 88.2415,
        "MEAN_ANOMALY": 272.0154,
        "EPHEMERIS_TYPE": 0,
        "CLASSIFICATION_TYPE": "U",
        "NORAD_CAT_ID": 20959,
        "ELEMENT_SET_NO": 999,
        "REV_AT_EPOCH": 25197,
        "BSTAR": 0,
        "MEAN_MOTION_DOT": -5.2e-07,
        "MEAN_MOTION_DDOT": 0
    },
    {
        "OBJECT_NAME": "NAVSTAR 23 (USA 71)",
        "OBJECT_ID": "1991-047A",
        "EPOCH": "2025-11-23T11:52:22.867104",
        "MEAN_MOTION": 1.91858182,
        "ECCENTRICITY": 0.0032845,
        "INCLINATION": 56.517,
        "RA_OF_ASC_NODE": 359.844,
        "ARG_OF_PERICENTER": 132.9693,
        "MEAN_ANOMALY": 254.8341,
        "EPHEMERIS_TYPE": 0,
        "CLASSIFICATION_TYPE": "U",
        "NORAD_CAT_ID": 21552,
        "ELEMENT_SET_NO": 999,
        "REV_AT_EPOCH": 24744,
        "BSTAR": 0,
        "MEAN_MOTION_DOT": -7.7e-07,
        "MEAN_MOTION_DDOT": 0
    },
    {
        "OBJECT_NAME": "NAVSTAR 24 (USA 79)",
        "OBJECT_ID": "1992-009A",
        "EPOCH": "2025-11-20T04:55:57.118080",
        "MEAN_MOTION": 1.91828676,
        "ECCENTRICITY": 0.0053031,
        "INCLINATION": 54.2164,
        "RA_OF_ASC_NODE": 173.7907,
        "ARG_OF_PERICENTER": 58.6937,
        "MEAN_ANOMALY": 120.5765,
        "EPHEMERIS_TYPE": 0,
        "CLASSIFICATION_TYPE": "U",
        "NORAD_CAT_ID": 21890,
        "ELEMENT_SET_NO": 999,
        "REV_AT_EPOCH": 24208,
        "BSTAR": 0,
        "MEAN_MOTION_DOT": 8.7e-07,
        "MEAN_MOTION_DDOT": 0
    },
    {
        "OBJECT_NAME": "NAVSTAR 25 (USA 80)",
        "OBJECT_ID": "1992-019A",
        "EPOCH": "2025-11-23T20:37:55.778304",
        "MEAN_MOTION": 1.8766122,
        "ECCENTRICITY": 0.0030733,
        "INCLINATION": 55.1186,
        "RA_OF_ASC_NODE": 312.3907,
        "ARG_OF_PERICENTER": 340.0683,
        "MEAN_ANOMALY": 19.8272,
        "EPHEMERIS_TYPE": 0,
        "CLASSIFICATION_TYPE": "U",
        "NORAD_CAT_ID": 21930,
        "ELEMENT_SET_NO": 999,
        "REV_AT_EPOCH": 23759,
        "BSTAR": 0,
        "MEAN_MOTION_DOT": -5.1e-07,
        "MEAN_MOTION_DDOT": 0
    },
    {
        "OBJECT_NAME": "NAVSTAR 26 (USA 83)",
        "OBJECT_ID": "1992-039A",
        "EPOCH": "2025-11-20T23:24:43.749504",
        "MEAN_MOTION": 1.87912028,
        "ECCENTRICITY": 0.00037976,
        "INCLINATION": 55.4555,
        "RA_OF_ASC_NODE": 126.7679,
        "ARG_OF_PERICENTER": 284.7265,
        "MEAN_ANOMALY": 75.2262,
        "EPHEMERIS_TYPE": 0,
        "CLASSIFICATION_TYPE": "U",
        "NORAD_CAT_ID": 22014,
        "ELEMENT_SET_NO": 999,
        "REV_AT_EPOCH": 7134,
        "BSTAR": 0,
        "MEAN_MOTION_DOT": 5.3e-07,
        "MEAN_MOTION_DDOT": 0
    },
    {
        "OBJECT_NAME": "NAVSTAR 27 (USA 84)",
        "OBJECT_ID": "1992-058A",
        "EPOCH": "2025-11-20T05:20:09.179808",
        "MEAN_MOTION": 1.87561266,
        "ECCENTRICITY": 0.00176433,
        "INCLINATION": 54.6586,
        "RA_OF_ASC_NODE": 173.9886,
        "ARG_OF_PERICENTER": 45.2125,
        "MEAN_ANOMALY": 315.025,
        "EPHEMERIS_TYPE": 0,
        "CLASSIFICATION_TYPE": "U",
        "NORAD_CAT_ID": 22108,
        "ELEMENT_SET_NO": 999,
        "REV_AT_EPOCH": 23910,
        "BSTAR": 0,
        "MEAN_MOTION_DOT": 9e-07,
        "MEAN_MOTION_DDOT": 0
    },
    {
        "OBJECT_NAME": "NAVSTAR 28 (USA 85)",
        "OBJECT_ID": "1992-079A",
        "EPOCH": "2025-11-18T13:41:04.834176",
        "MEAN_MOTION": 1.89108702,
        "ECCENTRICITY": 0.00242958,
        "INCLINATION": 55.4724,
        "RA_OF_ASC_NODE": 121.0808,
        "ARG_OF_PERICENTER": 0.8793,
        "MEAN_ANOMALY": 359.121,
        "EPHEMERIS_TYPE": 0,
        "CLASSIFICATION_TYPE": "U",
        "NORAD_CAT_ID": 22231,
        "ELEMENT_SET_NO": 999,
        "REV_AT_EPOCH": 5815,
        "BSTAR": 0,
        "MEAN_MOTION_DOT": 5.3e-07,
        "MEAN_MOTION_DDOT": 0
    },
    {
        "OBJECT_NAME": "NAVSTAR 29 (USA 87)",
        "OBJECT_ID": "1992-089A",
        "EPOCH": "2025-11-21T07:37:38.600832",
        "MEAN_MOTION": 1.88246761,
        "ECCENTRICITY": 0.00735382,
        "INCLINATION": 54.9738,
        "RA_OF_ASC_NODE": 135.5673,
        "ARG_OF_PERICENTER": 77.6625,
        "MEAN_ANOMALY": 102.1356,
        "EPHEMERIS_TYPE": 0,
        "CLASSIFICATION_TYPE": "U",
        "NORAD_CAT_ID": 22275,
        "ELEMENT_SET_NO": 999,
        "REV_AT_EPOCH": 23296,
        "BSTAR": 0,
        "MEAN_MOTION_DOT": 6.5e-07,
        "MEAN_MOTION_DDOT": 0
    },
    {
        "OBJECT_NAME": "NAVSTAR 30 (USA 88)",
        "OBJECT_ID": "1993-007A",
        "EPOCH": "2025-11-23T13:09:39.124800",
        "MEAN_MOTION": 1.88094705,
        "ECCENTRICITY": 0.0028541,
        "INCLINATION": 53.3813,
        "RA_OF_ASC_NODE": 250.4768,
        "ARG_OF_PERICENTER": 39.6231,
        "MEAN_ANOMALY": 138.0703,
        "EPHEMERIS_TYPE": 0,
        "CLASSIFICATION_TYPE": "U",
        "NORAD_CAT_ID": 22446,
        "ELEMENT_SET_NO": 999,
        "REV_AT_EPOCH": 23013,
        "BSTAR": 0,
        "MEAN_MOTION_DOT": -1e-08,
        "MEAN_MOTION_DDOT": 0
    },
    {
        "OBJECT_NAME": "NAVSTAR 31 (USA 90)",
        "OBJECT_ID": "1993-017A",
        "EPOCH": "2025-11-22T18:14:40.884288",
        "MEAN_MOTION": 1.88946706,
        "ECCENTRICITY": 0.00010036,
        "INCLINATION": 54.3271,
        "RA_OF_ASC_NODE": 305.5984,
        "ARG_OF_PERICENTER": 77.2143,
        "MEAN_ANOMALY": 105.6796,
        "EPHEMERIS_TYPE": 0,
        "CLASSIFICATION_TYPE": "U",
        "NORAD_CAT_ID": 22581,
        "ELEMENT_SET_NO": 999,
        "REV_AT_EPOCH": 8528,
        "BSTAR": 0,
        "MEAN_MOTION_DOT": -5.4e-07,
        "MEAN_MOTION_DDOT": 0
    },
    {
        "OBJECT_NAME": "NAVSTAR 32 (USA 91)",
        "OBJECT_ID": "1993-032A",
        "EPOCH": "2025-11-22T13:21:16.485984",
        "MEAN_MOTION": 1.87695967,
        "ECCENTRICITY": 0.0038238,
        "INCLINATION": 53.7086,
        "RA_OF_ASC_NODE": 288.0784,
        "ARG_OF_PERICENTER": 87.8854,
        "MEAN_ANOMALY": 87.8366,
        "EPHEMERIS_TYPE": 0,
        "CLASSIFICATION_TYPE": "U",
        "NORAD_CAT_ID": 22657,
        "ELEMENT_SET_NO": 999,
        "REV_AT_EPOCH": 23002,
        "BSTAR": 0,
        "MEAN_MOTION_DOT": -4.2e-07,
        "MEAN_MOTION_DDOT": 0
    },
    {
        "OBJECT_NAME": "NAVSTAR 33 (USA 92)",
        "OBJECT_ID": "1993-042A",
        "EPOCH": "2025-11-23T01:39:32.069952",
        "MEAN_MOTION": 1.89432085,
        "ECCENTRICITY": 0.00128454,
        "INCLINATION": 54.706,
        "RA_OF_ASC_NODE": 176.1307,
        "ARG_OF_PERICENTER": 33.7511,
        "MEAN_ANOMALY": 149.2155,
        "EPHEMERIS_TYPE": 0,
        "CLASSIFICATION_TYPE": "U",
        "NORAD_CAT_ID": 22700,
        "ELEMENT_SET_NO": 999,
        "REV_AT_EPOCH": 23322,
        "BSTAR": 0,
        "MEAN_MOTION_DOT": 7.7e-07,
        "MEAN_MOTION_DDOT": 0
    },
    {
        "OBJECT_NAME": "NAVSTAR 34 (USA 94)",
        "OBJECT_ID": "1993-054A",
        "EPOCH": "2025-11-23T14:39:38.005056",
        "MEAN_MOTION": 1.8912977,
        "ECCENTRICITY": 0.00509,
        "INCLINATION": 53.3543,
        "RA_OF_ASC_NODE": 225.2349,
        "ARG_OF_PERICENTER": 250.8826,
        "MEAN_ANOMALY": 292.7128,
        "EPHEMERIS_TYPE": 0,
        "CLASSIFICATION_TYPE": "U",
        "NORAD_CAT_ID": 22779,
        "ELEMENT_SET_NO": 999,
        "REV_AT_EPOCH": 23213,
        "BSTAR": 0,
        "MEAN_MOTION_DOT": 2.6e-07,
        "MEAN_MOTION_DDOT": 0
    }
]